[
  "TORO                    \r\n1 60530U 24149BQ  26186.15991946  .00003731  00000+0  33347-3 0  9997\r\n2 60530  97.6780 260.4924 0001597  95.8888 264.2516 14.96496084102648\r\n",
  "TORO3                   \r\n1 68481U 26067BT  26185.60180393  .00000833  00000+0  87310-4 0  9996\r\n2 68481  97.7680 143.7141 0001308 245.3834 114.7248 14.92157127 14324\r\n",
  "SATORO-T3               \r\n1 64589U 25135BP  26186.30860473  .00002549  00000+0  24204-3 0  9996\r\n2 64589  97.7728 300.6522 0003549 270.7340  89.3473 14.94404483 56619\r\n",
  "GEMINI-POLLUX           \r\n1 69000U 26100W   26186.16554543  .00002678  00000+0  26769-3 0  9995\r\n2 69000  97.7299  83.3050 0001636 117.7554 242.3831 14.92297924  9387\r\n",
  "FORMOSAT-2 (ROCSAT 2)   \r\n1 28254U 04018A   26185.88078861 -.00000201  00000+0 -10522-3 0  9999\r\n2 28254  98.8457 152.8204 0000598 290.0059  99.3917 14.01256320131235\r\n",
  "FORMOSAT-3 FM6          \r\n1 29047U 06011A   26186.20263522  .00000518  00000+0  20835-3 0  9999\r\n2 29047  71.9777 274.4200 0049125 208.4956 151.3495 14.31413529 56985\r\n",
  "FORMOSAT-3 FM1          \r\n1 29048U 06011B   26185.70737065  .00000445  00000+0  18172-3 0  9992\r\n2 29048  71.9641 183.8334 0041852 172.7725 187.4026 14.31402658 59280\r\n",
  "FORMOSAT-3 FM5          \r\n1 29049U 06011C   26185.89718971  .00000546  00000+0  21993-3 0  9995\r\n2 29049  72.0189   7.6740 0033797 178.8111 181.3114 14.31418740 55207\r\n",
  "FORMOSAT-3 FM3          \r\n1 29050U 06011D   26185.71002728  .00001845  00000+0  33338-3 0  9993\r\n2 29050  72.0137 274.3440 0044973 253.9519 105.6683 14.67001603 78948\r\n",
  "FORMOSAT-3 FM4          \r\n1 29051U 06011E   26185.92564904  .00000410  00000+0  16563-3 0  9994\r\n2 29051  72.0039 265.1277 0064421  58.9176 301.8262 14.31553510 57803\r\n",
  "FORMOSAT-3 FM2          \r\n1 29052U 06011F   26185.85371675  .00000592  00000+0  23586-3 0  9992\r\n2 29052  72.0333 346.1462 0037698 131.2363 229.2034 14.31632917 55319\r\n",
  "PACE                    \r\n1 40022U 14033N   26185.74586073  .00009239  00000+0  55679-3 0  9998\r\n2 40022  98.1244 191.6961 0007247 146.5115 213.6572 15.11003023655686\r\n",
  "FORMOSAT-5              \r\n1 42920U 17049A   26186.25917195  .00000239  00000+0  71447-4 0  9990\r\n2 42920  98.2249 261.1672 0011994  33.4998 326.6953 14.50905964469295\r\n",
  "FORMOSAT 7-3            \r\n1 44343U 19036E   26185.96096791  .00007358  00000+0  42076-3 0  9990\r\n2 44343  23.9997  56.1986 0000957 114.2527 245.8077 15.09937412385939\r\n",
  "FORMOSAT 7-1            \r\n1 44349U 19036L   26185.91606182  .00003515  00000+0  27536-3 0  9997\r\n2 44349  23.9981 272.8679 0001026  47.1047 312.9540 14.96586906387311\r\n",
  "FORMOSAT 7-4            \r\n1 44350U 19036M   26185.80528228  .00004279  00000+0  34085-3 0  9996\r\n2 44350  23.9997 335.7207 0001424  47.2725 312.7896 14.96582301386712\r\n",
  "FORMOSAT 7-2            \r\n1 44351U 19036N   26185.89431041  .00003875  00000+0  30625-3 0  9999\r\n2 44351  23.9997  29.4335 0000862  49.3621 310.6955 14.96578734386241\r\n",
  "FORMOSAT 7-6            \r\n1 44353U 19036Q   26186.22729036  .00003416  00000+0  26685-3 0  9995\r\n2 44353  23.9964 208.0028 0000734 328.4033  31.6424 14.96587400384527\r\n",
  "FORMOSAT 7-5            \r\n1 44358U 19036V   26186.00456984  .00002486  00000+0  18730-3 0  9993\r\n2 44358  23.9966 148.2502 0000539  94.4140 265.6423 14.96562948385022\r\n",
  "FORMOSAT-7R (TRITON)    \r\n1 58017U 23155B   26186.15608470  .00002134  00000+0  22060-3 0  9993\r\n2 58017  97.8354 267.4240 0002143  64.1308 296.0131 14.91175237148900\r\n",
  "NIGHTJAR                \r\n1 60535U 24149BV  26186.14792120  .00005413  00000+0  44999-3 0  9998\r\n2 60535  97.6821 262.6025 0001761 114.0706 246.0702 14.99122682145567\r\n",
  "IRIS-F3                 \r\n1 62619U 25009L   26186.13989271  .00008798  00000+0  33194-3 0  9997\r\n2 62619  97.4038 266.8429 0004918 252.6302 107.4399 15.27263316 81565\r\n",
  "IRIS-F2                 \r\n1 62684U 25009CD  26186.15700116  .00026042  00000+0  97736-3 0  9994\r\n2 62684  97.3883 265.7545 0003949 283.8443  76.2357 15.27186226139202\r\n",
  "FORMOSAT-8A             \r\n1 66666U 25276A   26186.14156308  .00002262  00000+0  18311-3 0  9991\r\n2 66666  97.6546 260.1155 0004238 166.4578 193.6761 15.00730702 32758\r\n",
  "LILIUM-2                \r\n1 66679U 25276P   26185.64182175  .00003555  00000+0  17781-3 0  9996\r\n2 66679  97.4146 258.3359 0004743 316.4112  43.6747 15.18062930 33044\r\n",
  "BLACK KITE-1            \r\n1 66741U 25276CD  26186.14167669  .00014473  00000+0  65741-3 0  9993\r\n2 66741  97.4233 259.6012 0004024 288.8525  71.2274 15.20870549 30453\r\n",
  "T.MICROSAT-1            \r\n1 66766U 25276DE  26185.44539271  .00009848  00000+0  44680-3 0  9993\r\n2 66766  97.4152 258.9045 0002205 109.0307 251.1168 15.21011148 33063\r\n",
  "LILIUM-3                \r\n1 66770U 25276DJ  26186.20192536  .00004068  00000+0  19419-3 0  9993\r\n2 66770  97.4235 259.6629 0002384 148.6195 211.5183 15.19611093 33168\r\n",
  "T.MICROSAT-2            \r\n1 68433U 26067T   26185.60095177  .00008730  00000+0  43757-3 0  9998\r\n2 68433  97.4579 143.7095 0006098  21.5497 338.5992 15.17575434 14575\r\n",
  "PARUS-6U1               \r\n1 68456U 26067AS  26185.85907837  .00008857  00000+0  44212-3 0  9992\r\n2 68456  97.4564 143.9531 0005979  23.4128 336.7377 15.17714857 14616\r\n",
  "BLACK KITE-2            \r\n1 68474U 26067BL  26185.64438220  .00004245  00000+0  41714-3 0  9995\r\n2 68474  97.7556 143.6756 0002586 141.5515 218.5889 14.92669212 14339\r\n",
  "PEARL-1B                \r\n1 68980U 26100A   26185.96714703  .00003134  00000+0  32523-3 0  9997\r\n2 68980  97.7341  82.9760 0008900  88.6362 271.5876 14.90639602  9337\r\n",
  "PEARL-1A                \r\n1 68990U 26100L   26185.94955186  .00002388  00000+0  24679-3 0  9991\r\n2 68990  97.7292  82.9643 0006856 100.8854 259.3136 14.91037559  9342\r\n"
]